NORAD_CAT_ID,OBJECT_NAME,OBJECT_TYPE,EPOCH,MEAN_MOTION,ECCENTRICITY,INCLINATION,RA_OF_ASC_NODE,ARG_OF_PERICENTER,MEAN_ANOMALY,BSTAR,MEAN_MOTION_DOT,MEAN_MOTION_DDOT,TLE_LINE0,TLE_LINE1,TLE_LINE2,SEMIMAJOR_AXIS,PERIOD,APOGEE,PERIGEE,DECAYED
56484.0,STARLINK-6221,PAYLOAD,2024-05-03 03:52:40,14.98327923,0.0002865,70.0007,27.6269,264.3963,95.6869,0.00025162,2.91e-05,0.0,0 STARLINK-6221,1 56484U 23064AN  24124.16158304  .00002910  00000-0  25162-3 0  9994,2 56484  70.0007  27.6269 0002865 264.3963  95.6869 14.98327923 54919,6950.199,96.107,574.056,570.073,0.0
56484.0,STARLINK-6221,PAYLOAD,2024-05-03 10:17:13,14.98333489,0.0002634,70.0028,26.9537,266.3413,93.7444,-0.00013508,-1.704e-05,0.0,0 STARLINK-6221,1 56484U 23064AN  24124.42862933 -.00001704  00000-0 -13508-3 0  9996,2 56484  70.0028  26.9537 0002634 266.3413  93.7444 14.98333489 54594,6950.182,96.107,573.878,570.216,0.0
56484.0,STARLINK-6221,PAYLOAD,2024-05-03 19:54:02,14.98324854,0.000256,70.0013,25.9439,270.3842,89.7024,-0.00011203,-1.429e-05,0.0,0 STARLINK-6221,1 56484U 23064AN  24124.82919548 -.00001429  00000-0 -11203-3 0  9999,2 56484  70.0013  25.9439 0002560 270.3842  89.7024 14.98324854 55010,6950.209,96.107,573.853,570.295,0.0
56484.0,STARLINK-6221,PAYLOAD,2024-05-03 21:30:10,14.98323297,0.0002611,70.0016,25.7756,269.4176,90.6684,-0.00012887,-1.63e-05,0.0,0 STARLINK-6221,1 56484U 23064AN  24124.89595698 -.00001630  00000-0 -12887-3 0  9995,2 56484  70.0016  25.7756 0002611 269.4176  90.6684 14.98323297 54662,6950.214,96.107,573.893,570.264,0.0
56484.0,STARLINK-6221,PAYLOAD,2024-05-04 19:56:03,14.98331467,0.0002879,70.0007,23.4206,261.5904,98.4929,5.8673e-06,-2.3e-07,0.0,0 STARLINK-6221,1 56484U 23064AN  24125.83059160 -.00000023  00000-0  58673-5 0  9998,2 56484  70.0007  23.4206 0002879 261.5904  98.4929 14.98331467 55167,6950.188,96.107,574.054,570.052,0.0
56484.0,STARLINK-6221,PAYLOAD,2024-05-05 03:56:43,14.98333314,0.0002829,70.0008,22.5781,267.7372,92.3463,3.4928e-05,3.24e-06,0.0,0 STARLINK-6221,1 56484U 23064AN  24126.16439028  .00000324  00000-0  34928-4 0  9999,2 56484  70.0008  22.5781 0002829 267.7372  92.3463 14.98333314 54852,6950.183,96.107,574.014,570.081,0.0
56484.0,STARLINK-6221,PAYLOAD,2024-05-05 19:58:05,14.98330003,0.0002569,70.0006,20.8949,268.6042,91.4823,0.00027248,3.16e-05,0.0,0 STARLINK-6221,1 56484U 23064AN  24126.83200579  .00003160  00000-0  27248-3 0  9997,2 56484  70.0006  20.8949 0002569 268.6042  91.4823 14.98330003 55316,6950.193,96.107,573.843,570.272,0.0
56484.0,STARLINK-6221,PAYLOAD,2024-05-05 23:10:19,14.98333912,0.0002976,70.0001,20.5571,266.837,93.2449,0.00022522,2.596e-05,0.0,0 STARLINK-6221,1 56484U 23064AN  24126.96550392  .00002596  00000-0  22522-3 0  9994,2 56484  70.0001  20.5571 0002976 266.8370  93.2449 14.98333912 54972,6950.181,96.107,574.114,569.977,0.0
56484.0,STARLINK-6221,PAYLOAD,2024-05-06 02:22:35,14.98336058,0.0002905,70.0001,20.2205,266.8599,93.2228,0.00023509,2.714e-05,0.0,0 STARLINK-6221,1 56484U 23064AN  24127.09902210  .00002714  00000-0  23509-3 0  9997,2 56484  70.0001  20.2205 0002905 266.8599  93.2228 14.98336058 55350,6950.174,96.107,574.058,570.02,0.0
56484.0,STARLINK-6221,PAYLOAD,2024-05-06 10:23:15,14.98335486,0.0002918,70.0001,19.3787,267.4426,92.6399,0.0001574,1.786e-05,0.0,0 STARLINK-6221,1 56484U 23064AN  24127.43282315  .00001786  00000-0  15740-3 0  9998,2 56484  70.0001  19.3787 0002918 267.4426  92.6399 14.98335486 55046,6950.176,96.107,574.069,570.013,0.0
56484.0,STARLINK-6221,PAYLOAD,2024-05-06 23:12:20,14.98338055,0.0003041,69.9997,18.0318,268.9958,91.0853,4.3048e-05,4.21e-06,0.0,0 STARLINK-6221,1 56484U 23064AN  24127.96690243  .00000421  00000-0  43048-4 0  9997,2 56484  69.9997  18.0318 0003041 268.9958  91.0853 14.98338055 55129,6950.168,96.106,574.147,569.919,0.0
56484.0,STARLINK-6221,PAYLOAD,2024-05-07 02:24:36,14.98339647,0.0002957,69.9999,17.695,268.1987,91.8834,5.7371e-05,5.92e-06,0.0,0 STARLINK-6221,1 56484U 23064AN  24128.10042038  .00000592  00000-0  57371-4 0  9990,2 56484  69.9999  17.6950 0002957 268.1987  91.8834 14.98339647 55504,6950.163,96.106,574.083,569.973,0.0
56484.0,STARLINK-6221,PAYLOAD,2024-05-07 10:25:17,14.98334204,0.0002907,70.0008,16.8523,272.218,87.8647,-5.443e-05,-7.42e-06,0.0,0 STARLINK-6221,1 56484U 23064AN  24128.43422562 -.00000742  00000-0 -54430-4 0  9992,2 56484  70.0008  16.8523 0002907 272.2180  87.8647 14.98334204 55557,6950.18,96.107,574.065,570.024,0.0
56484.0,STARLINK-6221,PAYLOAD,2024-05-07 21:38:13,14.98329593,0.0002771,69.9997,15.6745,267.9955,92.0886,-0.00015091,-1.893e-05,0.0,0 STARLINK-6221,1 56484U 23064AN  24128.90155062 -.00001893  00000-0 -15091-3 0  9999,2 56484  69.9997  15.6745 0002771 267.9955  92.0886 14.98329593 55260,6950.194,96.107,573.985,570.133,0.0
56484.0,STARLINK-6221,PAYLOAD,2024-05-08 02:26:38,14.98327787,0.0002872,70.0,15.1698,267.8757,92.2073,-0.00015796,-1.977e-05,0.0,0 STARLINK-6221,1 56484U 23064AN  24129.10183216 -.00001977  00000-0 -15796-3 0  9999,2 56484  70.0000  15.1698 0002872 267.8757  92.2073 14.98327787 55657,6950.2,96.107,574.061,570.069,0.0
56484.0,STARLINK-6221,PAYLOAD,2024-05-08 21:40:14,14.98334607,0.0003079,69.9999,13.1499,270.1045,89.9761,3.2087e-05,2.9e-06,0.0,0 STARLINK-6221,1 56484U 23064AN  24129.90294126  .00000290  00000-0  32087-4 0  9998,2 56484  69.9999  13.1499 0003079 270.1045  89.9761 14.98334607 55774,6950.179,96.107,574.184,569.904,0.0
56484.0,STARLINK-6221,PAYLOAD,2024-05-09 02:28:37,14.9834255,0.0003111,69.9999,12.646,270.0675,90.0128,6.4928e-05,6.82e-06,0.0,0 STARLINK-6221,1 56484U 23064AN  24130.10321455  .00000682  00000-0  64928-4 0  9992,2 56484  69.9999  12.6460 0003111 270.0675  90.0128 14.98342550 55801,6950.154,96.106,574.181,569.857,0.0
56484.0,STARLINK-6221,PAYLOAD,2024-05-09 08:53:10,14.98343693,0.0002646,70.0015,11.9725,266.4206,93.6651,-0.00016905,-2.11e-05,0.0,0 STARLINK-6221,1 56484U 23064AN  24130.37025929 -.00002110  00000-0 -16905-3 0  9999,2 56484  70.0015  11.9725 0002646 266.4206  93.6651 14.98343693 55483,6950.151,96.106,573.855,570.177,0.0
56484.0,STARLINK-6221,PAYLOAD,2024-05-09 20:06:07,14.98323648,0.0002852,70.0011,10.795,268.292,91.7912,0.00015339,1.737e-05,0.0,0 STARLINK-6221,1 56484U 23064AN  24130.83758494  .00001737  00000-0  15339-3 0  9992,2 56484  70.0011  10.7950 0002852 268.2920  91.7912 14.98323648 55913,6950.213,96.107,574.06,570.095,0.0
56484.0,STARLINK-6221,PAYLOAD,2024-05-09 21:42:15,14.98323291,0.0002815,70.001,10.6264,268.197,91.8866,0.00014004,1.578e-05,0.0,0 STARLINK-6221,1 56484U 23064AN  24130.90434572  .00001578  00000-0  14004-3 0  9999,2 56484  70.0010  10.6264 0002815 268.1970  91.8866 14.98323291 55566,6950.214,96.107,574.035,570.122,0.0
56484.0,STARLINK-6221,PAYLOAD,2024-05-10 02:30:39,14.9832449,0.0002548,70.0012,10.1211,261.1233,98.9638,0.00013707,1.543e-05,0.0,0 STARLINK-6221,1 56484U 23064AN  24131.10462565  .00001543  00000-0  13707-3 0  9996,2 56484  70.0012  10.1211 0002548 261.1233  98.9638 14.98324490 55593,6950.21,96.107,573.846,570.304,0.0
56484.0,STARLINK-6221,PAYLOAD,2024-05-10 18:32:00,14.98331536,0.0002947,70.0004,8.4383,268.5756,91.5066,-4.1276e-05,-5.85e-06,0.0,0 STARLINK-6221,1 56484U 23064AN  24131.77222629 -.00000585  00000-0 -41276-4 0  9994,2 56484  70.0004   8.4383 0002947 268.5756  91.5066 14.98331536 55692,6950.188,96.107,574.101,570.005,0.0
56484.0,STARLINK-6221,PAYLOAD,2024-05-11 02:32:39,14.98351909,0.0002662,70.0007,7.5982,265.7907,94.2948,0.00017742,2.026e-05,0.0,0 STARLINK-6221,1 56484U 23064AN  24132.10601031  .00002026  00000-0  17742-3 0  9990,2 56484  70.0007   7.5982 0002662 265.7907  94.2948 14.98351909 56103,6950.125,96.106,573.84,570.14,0.0
56484.0,STARLINK-6221,PAYLOAD,2024-05-11 08:57:09,14.9837034,0.0002784,70.0006,6.9228,266.8602,93.2238,0.0003369,3.933e-05,0.0,0 STARLINK-6221,1 56484U 23064AN  24132.37303034  .00003933  00000-0  33690-3 0  9999,2 56484  70.0006   6.9228 0002784 266.8602  93.2238 14.98370340 56142,6950.068,96.104,573.868,569.998,0.0
56484.0,STARLINK-6221,PAYLOAD,2024-05-11 21:46:17,14.98307379,0.0002573,70.001,5.5768,266.793,93.2935,-0.0002501,-3.074e-05,0.0,0 STARLINK-6221,1 56484U 23064AN  24132.90715070 -.00003074  00000-0 -25010-3 0  9990,2 56484  70.0010   5.5768 0002573 266.7930  93.2935 14.98307379 56225,6950.263,96.108,573.916,570.34,0.0
56484.0,STARLINK-6221,PAYLOAD,2024-05-12 08:59:18,14.98273758,0.0002841,70.0011,4.398,265.5598,94.5236,-0.00059414,-7.164e-05,0.0,0 STARLINK-6221,1 56484U 23064AN  24133.37451506 -.00007164  00000-0 -59414-3 0  9992,2 56484  70.0011   4.3980 0002841 265.5598  94.5236 14.98273758 56292,6950.367,96.111,574.206,570.257,0.0
56484.0,STARLINK-6221,PAYLOAD,2024-05-12 21:48:20,14.98318672,0.0002757,70.0,3.0511,269.1128,90.9715,-2.6035e-05,-4.03e-06,0.0,0 STARLINK-6221,1 56484U 23064AN  24133.90857264 -.00000403  00000-0 -26035-4 0  9995,2 56484  70.0000   3.0511 0002757 269.1128  90.9715 14.98318672 56377,6950.228,96.108,574.009,570.177,0.0
56484.0,STARLINK-6221,PAYLOAD,2024-05-13 09:01:19,14.98235323,0.0002463,69.9993,1.8718,247.1317,112.9582,0.0015826,0.00018794,0.0,0 STARLINK-6221,1 56484U 23064AN  24134.37591683  .00018794  00000-0  15826-2 0  9991,2 56484  69.9993   1.8718 0002463 247.1317 112.9582 14.98235323 56446,6950.486,96.113,574.063,570.639,0.0
56484.0,STARLINK-6221,PAYLOAD,2024-05-14 01:02:35,14.98355782,0.0003897,69.9997,0.1889,274.6146,85.4568,-0.00032845,-4.013e-05,0.0,0 STARLINK-6221,1 56484U 23064AN  24135.04346762 -.00004013  00000-0 -32845-3 0  9994,2 56484  69.9997   0.1889 0003897 274.6146  85.4568 14.98355782 56549,6950.113,96.105,574.687,569.27,0.0
56484.0,STARLINK-6221,PAYLOAD,2024-05-14 13:51:41,14.98315008,0.000303,69.9997,358.841,276.0379,84.0434,0.0005398,6.351e-05,0.0,0 STARLINK-6221,1 56484U 23064AN  24135.57756674  .00006351  00000-0  53980-3 0  9997,2 56484  69.9997 358.8410 0003030 276.0379  84.0434 14.98315008 56628,6950.239,96.108,574.21,569.998,0.0
